{
  "type": "FeatureCollection",
  "features": [
    {
      "type": "Feature",
      "properties": {
        "norad_id": 40069,
        "name": "METEOR-M 2",
        "group": "weather",
        "lat": 68.14528609964349,
        "lon": -45.4735314556275,
        "alt_km": 814.7784453608365,
        "timestamp": "2025-12-25T07:00:33.686043+00:00",
        "meta_object_name": "METEOR-M 2",
        "meta_object_id": "2014-037A",
        "meta_epoch": "2025-12-24T22:14:05.053632",
        "meta_mean_motion": 14.21391179,
        "meta_eccentricity": 0.00056447,
        "meta_inclination": 98.4917,
        "meta_ra_of_asc_node": 336.0441,
        "meta_arg_of_pericenter": 171.9653,
        "meta_mean_anomaly": 188.1617,
        "meta_ephemeris_type": 0,
        "meta_classification_type": "U",
        "meta_norad_cat_id": 40069,
        "meta_element_set_no": 999,
        "meta_rev_at_epoch": 59456,
        "meta_bstar": 0.00012277751,
        "meta_mean_motion_dot": 2.26e-06,
        "meta_mean_motion_ddot": 0,
        "tle_line1": "1 40069U 14037A   25358.92644738  .00000226  00000+0  12278-3 0  9992",
        "tle_line2": "2 40069  98.4917 336.0441 0005644 171.9653 188.1617 14.21391179594560"
      },
      "geometry": {
        "type": "Point",
        "coordinates": [
          -45.4735314556275,
          68.14528609964349
        ]
      }
    },
    {
      "type": "Feature",
      "properties": {
        "norad_id": 40267,
        "name": "HIMAWARI-8",
        "group": "weather",
        "lat": 0.021400150573268096,
        "lon": -20.13778629750766,
        "alt_km": 35783.070492810904,
        "timestamp": "2025-12-25T07:00:33.686055+00:00",
        "meta_object_name": "HIMAWARI-8",
        "meta_object_id": "2014-060A",
        "meta_epoch": "2025-12-24T18:08:34.455840",
        "meta_mean_motion": 1.00271452,
        "meta_eccentricity": 9.157e-05,
        "meta_inclination": 0.0435,
        "meta_ra_of_asc_node": 201.9035,
        "meta_arg_of_pericenter": 102.9917,
        "meta_mean_anomaly": 201.4431,
        "meta_ephemeris_type": 0,
        "meta_classification_type": "U",
        "meta_norad_cat_id": 40267,
        "meta_element_set_no": 999,
        "meta_rev_at_epoch": 4101,
        "meta_bstar": 0,
        "meta_mean_motion_dot": -2.54e-06,
        "meta_mean_motion_ddot": 0,
        "tle_line1": "1 40267U 14060A   25358.75595435 -.00000254  00000+0  00000+0 0  9996",
        "tle_line2": "2 40267   0.0435 201.9035 0000915 102.9917 201.4431  1.00271452 41010"
      },
      "geometry": {
        "type": "Point",
        "coordinates": [
          -20.13778629750766,
          0.021400150573268096
        ]
      }
    },
    {
      "type": "Feature",
      "properties": {
        "norad_id": 40367,
        "name": "FENGYUN 2G",
        "group": "weather",
        "lat": -3.594933927727272,
        "lon": -61.670144223551596,
        "alt_km": 35778.81549142204,
        "timestamp": "2025-12-25T07:00:33.686067+00:00",
        "meta_object_name": "FENGYUN 2G",
        "meta_object_id": "2014-090A",
        "meta_epoch": "2025-12-24T18:42:23.852736",
        "meta_mean_motion": 1.00282174,
        "meta_eccentricity": 0.0001828,
        "meta_inclination": 5.1959,
        "meta_ra_of_asc_node": 74.9486,
        "meta_arg_of_pericenter": 172.5748,
        "meta_mean_anomaly": 225.8449,
        "meta_ephemeris_type": 0,
        "meta_classification_type": "U",
        "meta_norad_cat_id": 40367,
        "meta_element_set_no": 999,
        "meta_rev_at_epoch": 4025,
        "meta_bstar": 0,
        "meta_mean_motion_dot": -2.82e-06,
        "meta_mean_motion_ddot": 0,
        "tle_line1": "1 40367U 14090A   25358.77944274 -.00000282  00000+0  00000+0 0  9992",
        "tle_line2": "2 40367   5.1959  74.9486 0001828 172.5748 225.8449  1.00282174 40252"
      },
      "geometry": {
        "type": "Point",
        "coordinates": [
          -61.670144223551596,
          -3.594933927727272
        ]
      }
    },
    {
      "type": "Feature",
      "properties": {
        "norad_id": 40732,
        "name": "METEOSAT-11 (MSG-4)",
        "group": "weather",
        "lat": 1.9045659219310362,
        "lon": -151.5923412912165,
        "alt_km": 35782.936003293544,
        "timestamp": "2025-12-25T07:00:33.686079+00:00",
        "meta_object_name": "METEOSAT-11 (MSG-4)",
        "meta_object_id": "2015-034A",
        "meta_epoch": "2025-12-24T21:42:14.130144",
        "meta_mean_motion": 1.00271301,
        "meta_eccentricity": 7.159e-05,
        "meta_inclination": 2.7669,
        "meta_ra_of_asc_node": 71.9683,
        "meta_arg_of_pericenter": 137.0456,
        "meta_mean_anomaly": 219.4009,
        "meta_ephemeris_type": 0,
        "meta_classification_type": "U",
        "meta_norad_cat_id": 40732,
        "meta_element_set_no": 999,
        "meta_rev_at_epoch": 546,
        "meta_bstar": 0,
        "meta_mean_motion_dot": 8.1e-07,
        "meta_mean_motion_ddot": 0,
        "tle_line1": "1 40732U 15034A   25358.90433021  .00000081  00000+0  00000+0 0  9991",
        "tle_line2": "2 40732   2.7669  71.9683 0000715 137.0456 219.4009  1.00271301  5466"
      },
      "geometry": {
        "type": "Point",
        "coordinates": [
          -151.5923412912165,
          1.9045659219310362
        ]
      }
    },
    {
      "type": "Feature",
      "properties": {
        "norad_id": 41105,
        "name": "ELEKTRO-L 2",
        "group": "weather",
        "lat": 5.805564533872611,
        "lon": -175.19555009864197,
        "alt_km": 35786.859753272765,
        "timestamp": "2025-12-25T07:00:33.686092+00:00",
        "meta_object_name": "ELEKTRO-L 2",
        "meta_object_id": "2015-074A",
        "meta_epoch": "2025-12-24T23:18:12.437856",
        "meta_mean_motion": 1.0027204,
        "meta_eccentricity": 0.00035404,
        "meta_inclination": 6.2545,
        "meta_ra_of_asc_node": 72.6824,
        "meta_arg_of_pericenter": 208.1447,
        "meta_mean_anomaly": 147.994,
        "meta_ephemeris_type": 0,
        "meta_classification_type": "U",
        "meta_norad_cat_id": 41105,
        "meta_element_set_no": 999,
        "meta_rev_at_epoch": 3675,
        "meta_bstar": 0,
        "meta_mean_motion_dot": -9.8e-07,
        "meta_mean_motion_ddot": 0,
        "tle_line1": "1 41105U 15074A   25358.97097729 -.00000098  00000+0  00000+0 0  9997",
        "tle_line2": "2 41105   6.2545  72.6824 0003540 208.1447 147.9940  1.00272040 36753"
      },
      "geometry": {
        "type": "Point",
        "coordinates": [
          -175.19555009864197,
          5.805564533872611
        ]
      }
    },
    {
      "type": "Feature",
      "properties": {
        "norad_id": 41752,
        "name": "INSAT-3DR",
        "group": "weather",
        "lat": -0.03404950827878938,
        "lon": -86.81952164882345,
        "alt_km": 35725.81469781188,
        "timestamp": "2025-12-25T07:00:33.686105+00:00",
        "meta_object_name": "INSAT-3DR",
        "meta_object_id": "2016-054A",
        "meta_epoch": "2025-12-24T15:09:51.705216",
        "meta_mean_motion": 1.00271379,
        "meta_eccentricity": 0.00142635,
        "meta_inclination": 0.1198,
        "meta_ra_of_asc_node": 86.2568,
        "meta_arg_of_pericenter": 185.6475,
        "meta_mean_anomaly": 122.9543,
        "meta_ephemeris_type": 0,
        "meta_classification_type": "U",
        "meta_norad_cat_id": 41752,
        "meta_element_set_no": 999,
        "meta_rev_at_epoch": 3406,
        "meta_bstar": 0,
        "meta_mean_motion_dot": -5.6e-07,
        "meta_mean_motion_ddot": 0,
        "tle_line1": "1 41752U 16054A   25358.63184844 -.00000056  00000+0  00000+0 0  9996",
        "tle_line2": "2 41752   0.1198  86.2568 0014263 185.6475 122.9543  1.00271379 34066"
      },
      "geometry": {
        "type": "Point",
        "coordinates": [
          -86.81952164882345,
          -0.03404950827878938
        ]
      }
    },
    {
      "type": "Feature",
      "properties": {
        "norad_id": 41836,
        "name": "HIMAWARI-9",
        "group": "weather",
        "lat": -0.029373176063906502,
        "lon": -20.02887585713325,
        "alt_km": 35779.37721909106,
        "timestamp": "2025-12-25T07:00:33.686117+00:00",
        "meta_object_name": "HIMAWARI-9",
        "meta_object_id": "2016-064A",
        "meta_epoch": "2025-12-23T22:52:38.784288",
        "meta_mean_motion": 1.00271828,
        "meta_eccentricity": 0.00016373,
        "meta_inclination": 0.0175,
        "meta_ra_of_asc_node": 40.3208,
        "meta_arg_of_pericenter": 292.8784,
        "meta_mean_anomaly": 243.4785,
        "meta_ephemeris_type": 0,
        "meta_classification_type": "U",
        "meta_norad_cat_id": 41836,
        "meta_element_set_no": 999,
        "meta_rev_at_epoch": 3345,
        "meta_bstar": 0,
        "meta_mean_motion_dot": 0,
        "meta_mean_motion_ddot": 0,
        "tle_line1": "1 41836U 16064A   25357.95322667  .00000000  00000+0  00000+0 0  9999",
        "tle_line2": "2 41836   0.0175  40.3208 0001637 292.8784 243.4785  1.00271828 33458"
      },
      "geometry": {
        "type": "Point",
        "coordinates": [
          -20.02887585713325,
          -0.029373176063906502
        ]
      }
    }
  ]
}